{"type": "FeatureCollection", "features": [ {"type": "Feature", "properties": {"norad_id": 34823, "name": "COSMOS 2251 DEB", "group": "cosmos-2251-debris", "lat": -36.06021789083147, "lon": 76.21871740244302, "alt_km": 810.7964409417527, "timestamp": "2025-12-20T03:42:47.789497+00:00", "meta": {"OBJECT_NAME": "COSMOS 2251 DEB", "OBJECT_ID": "1993-036ABN", "EPOCH": "2025-12-19T06:26:19.930272", "MEAN_MOTION": 14.54970377, "ECCENTRICITY": 0.0154255, "INCLINATION": 74.0426, "RA_OF_ASC_NODE": 89.9214, "ARG_OF_PERICENTER": 173.0866, "MEAN_ANOMALY": 187.2478, "EPHEMERIS_TYPE": 0, "CLASSIFICATION_TYPE": "U", "NORAD_CAT_ID": 34823, "ELEMENT_SET_NO": 999, "REV_AT_EPOCH": 88476, "BSTAR": 0.00043216, "MEAN_MOTION_DOT": 2.15e-05, "MEAN_MOTION_DDOT": 0}, "tle": {"line1": "1 34823U 93036ABN 25353.26828623  .00002150  00000+0  43216-3 0  9992", "line2": "2 34823  74.0426  89.9214 0154255 173.0866 187.2478 14.54970377884768"}}, "geometry": {"type": "Point", "coordinates": [76.21871740244302, -36.06021789083147]}}, {"type": "Feature", "properties": {"norad_id": 34845, "name": "COSMOS 2251 DEB", "group": "cosmos-2251-debris", "lat": 45.111495460412, "lon": 151.2229990885331, "alt_km": 741.2646043438799, "timestamp": "2025-12-20T03:42:47.789507+00:00", "meta": {"OBJECT_NAME": "COSMOS 2251 DEB", "OBJECT_ID": "1993-036ABP", "EPOCH": "2025-12-19T17:31:51.883968", "MEAN_MOTION": 14.45872035, "ECCENTRICITY": 0.0022593, "INCLINATION": 74.0244, "RA_OF_ASC_NODE": 135.301, "ARG_OF_PERICENTER": 295.1391, "MEAN_ANOMALY": 64.7423, "EPHEMERIS_TYPE": 0, "CLASSIFICATION_TYPE": "U", "NORAD_CAT_ID": 34845, "ELEMENT_SET_NO": 999, "REV_AT_EPOCH": 87567, "BSTAR": 0.00020261, "MEAN_MOTION_DOT": 6.95e-06, "MEAN_MOTION_DDOT": 0}, "tle": {"line1": "1 34845U 93036ABP 25353.73046162  .00000695  00000+0  20261-3 0  9995", "line2": "2 34845  74.0244 135.3010 0022593 295.1391  64.7423 14.45872035875679"}}, "geometry": {"type": "Point", "coordinates": [151.2229990885331, 45.111495460412]}}, {"type": "Feature", "properties": {"norad_id": 34846, "name": "COSMOS 2251 DEB", "group": "cosmos-2251-debris", "lat": 22.29925071535079, "lon": -105.34691814806096, "alt_km": 727.5682538741621, "timestamp": "2025-12-20T03:42:47.789517+00:00", "meta": {"OBJECT_NAME": "COSMOS 2251 DEB", "OBJECT_ID": "1993-036ABQ", "EPOCH": "2025-12-19T11:00:59.895648", "MEAN_MOTION": 14.47250899, "ECCENTRICITY": 0.0026195, "INCLINATION": 74.0308, "RA_OF_ASC_NODE": 249.2094, "ARG_OF_PERICENTER": 314.7854, "MEAN_ANOMALY": 45.1174, "EPHEMERIS_TYPE": 0, "CLASSIFICATION_TYPE": "U", "NORAD_CAT_ID": 34846, "ELEMENT_SET_NO": 999, "REV_AT_EPOCH": 87501, "BSTAR": 0.00052244, "MEAN_MOTION_DOT": 1.891e-05, "MEAN_MOTION_DDOT": 0}, "tle": {"line1": "1 34846U 93036ABQ 25353.45902657  .00001891  00000+0  52244-3 0  9990", "line2": "2 34846  74.0308 249.2094 0026195 314.7854  45.1174 14.47250899875016"}}, "geometry": {"type": "Point", "coordinates": [-105.34691814806096, 22.29925071535079]}}, {"type": "Feature", "properties": {"norad_id": 34852, "name": "COSMOS 2251 DEB", "group": "cosmos-2251-debris", "lat": 3.4382624454579416, "lon": 68.35053297696602, "alt_km": 782.2461276307322, "timestamp": "2025-12-20T03:42:47.789527+00:00", "meta": {"OBJECT_NAME": "COSMOS 2251 DEB", "OBJECT_ID": "1993-036ABW", "EPOCH": "2025-12-18T10:47:45.598848", "MEAN_MOTION": 14.37009451, "ECCENTRICITY": 0.00164441, "INCLINATION": 74.0327, "RA_OF_ASC_NODE": 252.4705, "ARG_OF_PERICENTER": 354.4179, "MEAN_ANOMALY": 5.6788, "EPHEMERIS_TYPE": 0, "CLASSIFICATION_TYPE": "U", "NORAD_CAT_ID": 34852, "ELEMENT_SET_NO": 999, "REV_AT_EPOCH": 87616, "BSTAR": 9.6329972e-05, "MEAN_MOTION_DOT": 2.6e-06, "MEAN_MOTION_DDOT": 0}, "tle": {"line1": "1 34852U 93036ABW 25352.44983332  .00000260  00000+0  96330-4 0  9998", "line2": "2 34852  74.0327 252.4705 0016444 354.4179   5.6788 14.37009451876160"}}, "geometry": {"type": "Point", "coordinates": [68.35053297696602, 3.4382624454579416]}}, {"type": "Feature", "properties": {"norad_id": 34854, "name": "COSMOS 2251 DEB", "group": "cosmos-2251-debris", "lat": 54.28842075571262, "lon": 167.52526862556303, "alt_km": 678.7169678372547, "timestamp": "2025-12-20T03:42:47.789537+00:00", "meta": {"OBJECT_NAME": "COSMOS 2251 DEB", "OBJECT_ID": "1993-036ABY", "EPOCH": "2025-12-19T03:03:42.702912", "MEAN_MOTION": 14.76684297, "ECCENTRICITY": 0.00660293, "INCLINATION": 74.0285, "RA_OF_ASC_NODE": 146.0601, "ARG_OF_PERICENTER": 256.446, "MEAN_ANOMALY": 102.9353, "EPHEMERIS_TYPE": 0, "CLASSIFICATION_TYPE": "U", "NORAD_CAT_ID": 34854, "ELEMENT_SET_NO": 999, "REV_AT_EPOCH": 71976, "BSTAR": 0.00056593375, "MEAN_MOTION_DOT": 4.07e-05, "MEAN_MOTION_DDOT": 0}, "tle": {"line1": "1 34854U 93036ABY 25353.12757758  .00004070  00000+0  56593-3 0  9996", "line2": "2 34854  74.0285 146.0601 0066029 256.4460 102.9353 14.76684297719767"}}, "geometry": {"type": "Point", "coordinates": [167.52526862556303, 54.28842075571262]}}, {"type": "Feature", "properties": {"norad_id": 34856, "name": "COSMOS 2251 DEB", "group": "cosmos-2251-debris", "lat": -19.916422441213243, "lon": -104.43337806896987, "alt_km": 529.9378581394567, "timestamp": "2025-12-20T03:42:47.789548+00:00", "meta": {"OBJECT_NAME": "COSMOS 2251 DEB", "OBJECT_ID": "1993-036ACA", "EPOCH": "2025-12-19T06:24:00.092736", "MEAN_MOTION": 15.06389388, "ECCENTRICITY": 0.0032064, "INCLINATION": 73.9981, "RA_OF_ASC_NODE": 71.4246, "ARG_OF_PERICENTER": 208.487, "MEAN_ANOMALY": 218.2947, "EPHEMERIS_TYPE": 0, "CLASSIFICATION_TYPE": "U", "NORAD_CAT_ID": 34856, "ELEMENT_SET_NO": 999, "REV_AT_EPOCH": 89210, "BSTAR": 0.001117, "MEAN_MOTION_DOT": 0.00016644, "MEAN_MOTION_DDOT": 0}, "tle": {"line1": "1 34856U 93036ACA 25353.26666774  .00016644  00000+0  11170-2 0  9991", "line2": "2 34856  73.9981  71.4246 0032064 208.4870 218.2947 15.06389388892107"}}, "geometry": {"type": "Point", "coordinates": [-104.43337806896987, -19.916422441213243]}}, {"type": "Feature", "properties": {"norad_id": 34857, "name": "COSMOS 2251 DEB", "group": "cosmos-2251-debris", "lat": 27.051332192843624, "lon": 101.10298659576483, "alt_km": 741.1490459628831, "timestamp": "2025-12-20T03:42:47.789558+00:00", "meta": {"OBJECT_NAME": "COSMOS 2251 DEB", "OBJECT_ID": "1993-036ACB", "EPOCH": "2025-12-19T06:18:57.031776", "MEAN_MOTION": 14.58954482, "ECCENTRICITY": 0.0065606, "INCLINATION": 74.0163, "RA_OF_ASC_NODE": 94.3864, "ARG_OF_PERICENTER": 217.6758, "MEAN_ANOMALY": 169.7883, "EPHEMERIS_TYPE": 0, "CLASSIFICATION_TYPE": "U", "NORAD_CAT_ID": 34857, "ELEMENT_SET_NO": 999, "REV_AT_EPOCH": 87996, "BSTAR": 0.00074617, "MEAN_MOTION_DOT": 3.576e-05, "MEAN_MOTION_DDOT": 0}, "tle": {"line1": "1 34857U 93036ACB 25353.26316009  .00003576  00000+0  74617-3 0  9991", "line2": "2 34857  74.0163  94.3864 0065606 217.6758 169.7883 14.58954482879964"}}, "geometry": {"type": "Point", "coordinates": [101.10298659576483, 27.051332192843624]}}, {"type": "Feature", "properties": {"norad_id": 34859, "name": "COSMOS 2251 DEB", "group": "cosmos-2251-debris", "lat": 42.94346070479782, "lon": -20.321369431448453, "alt_km": 513.5465419891125, "timestamp": "2025-12-20T03:42:47.789568+00:00", "meta": {"OBJECT_NAME": "COSMOS 2251 DEB", "OBJECT_ID": "1993-036ACD", "EPOCH": "2025-12-19T09:10:24.100032", "MEAN_MOTION": 15.15762509, "ECCENTRICITY": 0.0001677, "INCLINATION": 74.028, "RA_OF_ASC_NODE": 325.8279, "ARG_OF_PERICENTER": 15.0861, "MEAN_ANOMALY": 136.4937, "EPHEMERIS_TYPE": 0, "CLASSIFICATION_TYPE": "U", "NORAD_CAT_ID": 34859, "ELEMENT_SET_NO": 999, "REV_AT_EPOCH": 88459, "BSTAR": 0.0029178, "MEAN_MOTION_DOT": 0.00056082, "MEAN_MOTION_DDOT": 0}, "tle": {"line1": "1 34859U 93036ACD 25353.38222338  .00056082  00000+0  29178-2 0  9998", "line2": "2 34859  74.0280 325.8279 0001677  15.0861 136.4937 15.15762509884598"}}, "geometry": {"type": "Point", "coordinates": [-20.321369431448453, 42.94346070479782]}}, {"type": "Feature", "properties": {"norad_id": 34861, "name": "COSMOS 2251 DEB", "group": "cosmos-2251-debris", "lat": -21.95254936512526, "lon": 29.06775331731912, "alt_km": 559.1755120551607, "timestamp": "2025-12-20T03:42:47.789578+00:00", "meta": {"OBJECT_NAME": "COSMOS 2251 DEB", "OBJECT_ID": "1993-036ACF", "EPOCH": "2025-12-18T14:08:43.600128", "MEAN_MOTION": 15.02920509, "ECCENTRICITY": 0.00076164, "INCLINATION": 74.0194, "RA_OF_ASC_NODE": 38.8984, "ARG_OF_PERICENTER": 29.0921, "MEAN_ANOMALY": 122.3778, "EPHEMERIS_TYPE": 0, "CLASSIFICATION_TYPE": "U", "NORAD_CAT_ID": 34861, "ELEMENT_SET_NO": 999, "REV_AT_EPOCH": 88180, "BSTAR": 0.0018473696, "MEAN_MOTION_DOT": 0.00024875, "MEAN_MOTION_DDOT": 0}, "tle": {"line1": "1 34861U 93036ACF 25352.58939352  .00024875  00000+0  18474-2 0  9995", "line2": "2 34861  74.0194  38.8984 0007616  29.0921 122.3778 15.02920509881800"}}, "geometry": {"type": "Point", "coordinates": [29.06775331731912, -21.95254936512526]}}, {"type": "Feature", "properties": {"norad_id": 34874, "name": "COSMOS 2251 DEB", "group": "cosmos-2251-debris", "lat": -42.11296347088978, "lon": 45.1542241953694, "alt_km": 798.6590179390678, "timestamp": "2025-12-20T03:42:47.789588+00:00", "meta": {"OBJECT_NAME": "COSMOS 2251 DEB", "OBJECT_ID": "1993-036ACM", "EPOCH": "2025-12-19T15:14:26.431296", "MEAN_MOTION": 14.36339936, "ECCENTRICITY": 0.0050622, "INCLINATION": 74.0394, "RA_OF_ASC_NODE": 61.1016, "ARG_OF_PERICENTER": 84.2082, "MEAN_ANOMALY": 65.9606, "EPHEMERIS_TYPE": 0, "CLASSIFICATION_TYPE": "U", "NORAD_CAT_ID": 34874, "ELEMENT_SET_NO": 999, "REV_AT_EPOCH": 87143, "BSTAR": 0.00053501, "MEAN_MOTION_DOT": 1.563e-05, "MEAN_MOTION_DDOT": 0}, "tle": {"line1": "1 34874U 93036ACM 25353.63502814  .00001563  00000+0  53501-3 0  9995", "line2": "2 34874  74.0394  61.1016 0050622  84.2082  65.9606 14.36339936871431"}}, "geometry": {"type": "Point", "coordinates": [45.1542241953694, -42.11296347088978]}}]}